[{"OBJECT_NAME":"ONEWEB-0348","OBJECT_ID":"2021-083AD","EPOCH":"2026-03-09T15:29:27.483936","MEAN_MOTION":13.20771082,"ECCENTRICITY":0.0001664,"INCLINATION":87.917,"RA_OF_ASC_NODE":294.3154,"ARG_OF_PERICENTER":66.4734,"MEAN_ANOMALY":293.6574,"EPHEMERIS_TYPE":0,"CLASSIFICATION_TYPE":"U","NORAD_CAT_ID":49213,"ELEMENT_SET_NO":999,"REV_AT_EPOCH":22367,"BSTAR":-0.00019332,"MEAN_MOTION_DOT":-6.6e-7,"MEAN_MOTION_DDOT":0},{"OBJECT_NAME":"SL-14 DEB","OBJECT_ID":"1991-056DB","EPOCH":"2026-03-09T08:15:51.655968","MEAN_MOTION":13.22480275,"ECCENTRICITY":0.00114631,"INCLINATION":82.5687,"RA_OF_ASC_NODE":205.081,"ARG_OF_PERICENTER":244.4096,"MEAN_ANOMALY":115.5846,"EPHEMERIS_TYPE":0,"CLASSIFICATION_TYPE":"U","NORAD_CAT_ID":46466,"ELEMENT_SET_NO":999,"REV_AT_EPOCH":26952,"BSTAR":0.0022533107,"MEAN_MOTION_DOT":9.53e-6,"MEAN_MOTION_DDOT":0}]
